COMMENT,ORIGINATOR,NORAD_CAT_ID,OBJECT_NAME,OBJECT_TYPE,CLASSIFICATION_TYPE,INTLDES,EPOCH,EPOCH_MICROSECONDS,MEAN_MOTION,ECCENTRICITY,INCLINATION,RA_OF_ASC_NODE,ARG_OF_PERICENTER,MEAN_ANOMALY,EPHEMERIS_TYPE,ELEMENT_SET_NO,REV_AT_EPOCH,BSTAR,MEAN_MOTION_DOT,MEAN_MOTION_DDOT,FILE,TLE_LINE0,TLE_LINE1,TLE_LINE2,OBJECT_ID,OBJECT_NUMBER,SEMIMAJOR_AXIS,PERIOD,APOGEE,PERIGEE,DECAYED
"GENERATED VIA SPACETRACK.ORG API","18 SPCS","48883","SPACEBEE-100","PAYLOAD","U","21059E","2022-01-07 08:28:01","803360","15.12893721","0.0007777","97.5346","138.3928","303.701","56.3479","0","999","2955","0.00014145","0.00002425","0","3266507","0 SPACEBEE-100","1 48883U 21059E   22007.35279865  .00002425  00000-0  14145-3 0  9995","2 48883  97.5346 138.3928 0007777 303.7010  56.3479 15.12893721 29557","2021-059E","48883","6905.517","95.182","532.753","522.012","0"
"GENERATED VIA SPACETRACK.ORG API","18 SPCS","48883","SPACEBEE-100","PAYLOAD","U","21059E","2022-01-07 21:09:57","922560","15.12895535","0.0007751","97.5345","138.9155","301.6029","58.4445","0","999","2963","0.00011745","0.00002003","0","3266804","0 SPACEBEE-100","1 48883U 21059E   22007.88192040  .00002003  00000-0  11745-3 0  9997","2 48883  97.5345 138.9155 0007751 301.6029  58.4445 15.12895535 29633","2021-059E","48883","6905.512","95.182","532.729","522.024","0"
"GENERATED VIA SPACETRACK.ORG API","18 SPCS","48883","SPACEBEE-100","PAYLOAD","U","21059E","2022-01-08 08:16:39","513792","15.12898758","0.0007745","97.5345","139.3728","299.8113","60.2348","0","999","2970","0.00013795","0.00002364","0","3267192","0 SPACEBEE-100","1 48883U 21059E   22008.34490178  .00002364  00000-0  13795-3 0  9999","2 48883  97.5345 139.3728 0007745 299.8113  60.2348 15.12898758 29700","2021-059E","48883","6905.502","95.182","532.715","522.019","0"
"GENERATED VIA SPACETRACK.ORG API","18 SPCS","48883","SPACEBEE-100","PAYLOAD","U","21059E","2022-01-08 14:37:37","523712","15.12900487","0.0007732","97.5345","139.6342","298.7649","61.2805","0","999","2974","0.00014649","0.00002514","0","3267276","0 SPACEBEE-100","1 48883U 21059E   22008.60946208  .00002514  00000-0  14649-3 0  9994","2 48883  97.5345 139.6342 0007732 298.7649  61.2805 15.12900487 29749","2021-059E","48883","6905.497","95.181","532.701","522.023","0"
"GENERATED VIA SPACETRACK.ORG API","18 SPCS","48883","SPACEBEE-100","PAYLOAD","U","21059E","2022-01-08 20:58:35","499936","15.12902959","0.0007721","97.5344","139.8955","297.7201","62.3246","0","999","2978","0.0001664","0.00002865","0","3267514","0 SPACEBEE-100","1 48883U 21059E   22008.87402199  .00002865  00000-0  16640-3 0  9991","2 48883  97.5344 139.8955 0007721 297.7201  62.3246 15.12902959 29782","2021-059E","48883","6905.489","95.181","532.686","522.023","0"
"GENERATED VIA SPACETRACK.ORG API","18 SPCS","48883","SPACEBEE-100","PAYLOAD","U","21059E","2022-01-09 14:26:14","816832","15.12907825","0.0007719","97.5343","140.6143","294.8338","65.209","0","999","2989","0.0001868","0.00003225","0","3268062","0 SPACEBEE-100","1 48883U 21059E   22009.60156038  .00003225  00000-0  18680-3 0  9998","2 48883  97.5343 140.6143 0007719 294.8338  65.2090 15.12907825 29894","2021-059E","48883","6905.475","95.181","532.670","522.009","0"
"GENERATED VIA SPACETRACK.ORG API","18 SPCS","48883","SPACEBEE-100","PAYLOAD","U","21059E","2022-01-09 19:11:58","238304","15.12909222","0.0007713","97.5343","140.8103","293.9962","66.0461","0","999","2992","0.00019214","0.00003319","0","3268223","0 SPACEBEE-100","1 48883U 21059E   22009.79997961  .00003319  00000-0  19214-3 0  9994","2 48883  97.5343 140.8103 0007713 293.9962  66.0461 15.12909222 29927","2021-059E","48883","6905.470","95.181","532.661","522.009","0"
"GENERATED VIA SPACETRACK.ORG API","18 SPCS","48883","SPACEBEE-100","PAYLOAD","U","21059E","2022-01-09 20:47:12","697152","15.12908778","0.0007714","97.5343","140.8756","293.7142","66.3279","0","999","2993","0.00017548","0.00003026","0","3268323","0 SPACEBEE-100","1 48883U 21059E   22009.86611918  .00003026  00000-0  17548-3 0  9990","2 48883  97.5343 140.8756 0007714 293.7142  66.3279 15.12908778 29936","2021-059E","48883","6905.472","95.181","532.664","522.010","0"
"GENERATED VIA SPACETRACK.ORG API","18 SPCS","48883","SPACEBEE-100","PAYLOAD","U","21059E","2022-01-10 14:14:51","816192","15.12913123","0.0007704","97.5342","141.5944","290.795","69.2455","0","999","3004","0.00018582","0.00003208","0","3268856","0 SPACEBEE-100","1 48883U 21059E   22010.59365528  .00003208  00000-0  18582-3 0  9996","2 48883  97.5342 141.5944 0007704 290.7950  69.2455 15.12913123 30047","2021-059E","48883","6905.458","95.181","532.643","522.003","0"
"GENERATED VIA SPACETRACK.ORG API","18 SPCS","48883","SPACEBEE-100","PAYLOAD","U","21059E","2022-01-10 20:35:49","607520","15.12915025","0.0007695","97.5342","141.8558","289.6889","70.3511","0","999","3008","0.00019005","0.00003283","0","3269118","0 SPACEBEE-100","1 48883U 21059E   22010.85821305  .00003283  00000-0  19005-3 0  9999","2 48883  97.5342 141.8558 0007695 289.6889  70.3511 15.12915025 30081","2021-059E","48883","6905.453","95.180","532.631","522.004","0"
"GENERATED VIA SPACETRACK.ORG API","18 SPCS","48883","SPACEBEE-100","PAYLOAD","U","21059E","2022-01-11 02:56:47","382432","15.12916472","0.0007706","97.5339","142.1171","288.496","71.5433","0","999","3012","0.00019709","0.00003407","0","3269241","0 SPACEBEE-100","1 48883U 21059E   22011.12277063  .00003407  00000-0  19709-3 0  9995","2 48883  97.5339 142.1171 0007706 288.4960  71.5433 15.12916472 30120","2021-059E","48883","6905.448","95.180","532.635","521.992","0"
"GENERATED VIA SPACETRACK.ORG API","18 SPCS","48883","SPACEBEE-100","PAYLOAD","U","21059E","2022-01-11 07:42:30","693312","15.12918067","0.0007712","97.5339","142.3131","287.6705","72.3684","0","999","3015","0.00020298","0.00003511","0","3269657","0 SPACEBEE-100","1 48883U 21059E   22011.32118858  .00003511  00000-0  20298-3 0  9994","2 48883  97.5339 142.3131 0007712 287.6705  72.3684 15.12918067 30155","2021-059E","48883","6905.443","95.180","532.634","521.983","0"
"GENERATED VIA SPACETRACK.ORG API","18 SPCS","48883","SPACEBEE-100","PAYLOAD","U","21059E","2022-01-11 21:59:40","534368","15.12922695","0.0007709","97.534","142.9012","285.1874","74.8504","0","999","3024","0.00021938","0.00003801","0","3269987","0 SPACEBEE-100","1 48883U 21059E   22011.91644137  .00003801  00000-0  21938-3 0  9997","2 48883  97.5340 142.9012 0007709 285.1874  74.8504 15.12922695 30247","2021-059E","48883","6905.429","95.180","532.618","521.971","0"
"GENERATED VIA SPACETRACK.ORG API","18 SPCS","48883","SPACEBEE-100","PAYLOAD","U","21059E","2022-01-12 07:31:07","22208","15.12924857","0.0007718","97.534","143.2932","283.6123","76.4249","0","999","3030","0.00020784","0.00003598","0","3270526","0 SPACEBEE-100","1 48883U 21059E   22012.31327572  .00003598  00000-0  20784-3 0  9994","2 48883  97.5340 143.2932 0007718 283.6123  76.4249 15.12924857 30305","2021-059E","48883","6905.423","95.180","532.617","521.958","0"
"GENERATED VIA SPACETRACK.ORG API","18 SPCS","48883","SPACEBEE-100","PAYLOAD","U","21059E","2022-01-12 07:31:07","22208","15.12924857","0.0007718","97.534","143.2932","283.6123","76.4249","0","999","3030","0.00020784","0.00003598","0","3270709","0 SPACEBEE-100","1 48883U 21059E   22012.31327572  .00003598  00000-0  20784-3 0  9994","2 48883  97.5340 143.2932 0007718 283.6123  76.4249 15.12924857 30305","2021-059E","48883","6905.423","95.180","532.617","521.958","0"
"GENERATED VIA SPACETRACK.ORG API","18 SPCS","48883","SPACEBEE-100","PAYLOAD","U","21059E","2022-01-13 07:19:42","882816","15.12933777","0.000771","97.5341","144.2734","279.7018","80.3342","0","999","3045","0.00023974","0.00004161","0","3271980","0 SPACEBEE-100","1 48883U 21059E   22013.30535744  .00004161  00000-0  23974-3 0  9997","2 48883  97.5341 144.2734 0007710 279.7018  80.3342 15.12933777 30453","2021-059E","48883","6905.396","95.179","532.585","521.937","0"
"GENERATED VIA SPACETRACK.ORG API","18 SPCS","48883","SPACEBEE-100","PAYLOAD","U","21059E","2022-01-13 13:40:40","364832","15.12936179","0.0007698","97.5343","144.5348","278.6231","81.4128","0","999","3049","0.00024582","0.00004269","0","3272242","0 SPACEBEE-100","1 48883U 21059E   22013.56991163  .00004269  00000-0  24582-3 0  9991","2 48883  97.5343 144.5348 0007698 278.6231  81.4128 15.12936179 30496","2021-059E","48883","6905.388","95.179","532.569","521.937","0"
"GENERATED VIA SPACETRACK.ORG API","18 SPCS","48883","SPACEBEE-100","PAYLOAD","U","21059E","2022-01-13 21:36:52","157088","15.12938578","0.0007687","97.5343","144.8616","277.2965","82.7392","0","999","3054","0.00023041","0.00003997","0","3272312","0 SPACEBEE-100","1 48883U 21059E   22013.90060367  .00003997  00000-0  23041-3 0  9998","2 48883  97.5343 144.8616 0007687 277.2965  82.7392 15.12938578 30542","2021-059E","48883","6905.381","95.179","532.554","521.938","0"
"GENERATED VIA SPACETRACK.ORG API","18 SPCS","48883","SPACEBEE-100","PAYLOAD","U","21059E","2022-01-14 13:29:15","586080","15.12946256","0.0007658","97.5345","145.5151","274.6606","85.375","0","999","3064","0.00027717","0.00004823","0","3272874","0 SPACEBEE-100","1 48883U 21059E   22014.56198595  .00004823  00000-0  27717-3 0  9999","2 48883  97.5345 145.5151 0007658 274.6606  85.3750 15.12946256 30647","2021-059E","48883","6905.358","95.179","532.511","521.934","0"
"GENERATED VIA SPACETRACK.ORG API","18 SPCS","48883","SPACEBEE-100","PAYLOAD","U","21059E","2022-01-14 15:04:29","914464","15.12946917","0.0007658","97.5346","145.5804","274.4098","85.6258","0","999","3065","0.00027812","0.0000484","0","3273200","0 SPACEBEE-100","1 48883U 21059E   22014.62812401  .00004840  00000-0  27812-3 0  9990","2 48883  97.5346 145.5804 0007658 274.4098  85.6258 15.12946917 30657","2021-059E","48883","6905.356","95.178","532.509","521.932","0"
